PROGRESS-MS 21          
1 54155U 22140A   22326.36465914  .00009471  00000+0  17282-3 0  9995
2 54155  51.6438 272.9968 0007038 101.0576  43.4609 15.50137650369715
STARLINK-5290           
1 54157U 22141A   22326.91667824 -.01212938  00000+0 -20530-1 0  9998
2 54157  53.2177  16.4202 0001839  33.8120 153.8151 15.53591381  1301
STARLINK-5297           
1 54158U 22141B   22326.91667824 -.01207110  00000+0 -20507-1 0  9999
2 54158  53.2177  16.4299 0001704  41.3112 141.5424 15.53478989  1309
STARLINK-5294           
1 54159U 22141C   22326.91667824 -.01183315  00000+0 -20380-1 0  9999
2 54159  53.2176  16.4261 0001456  51.3037 133.1014 15.53509378  1308
STARLINK-5233           
1 54160U 22141D   22326.91667824 -.00037882  00000+0 -26646-3 0  9990
2 54160  53.2192  15.8246 0003098   9.0418 117.3849 15.73213068  1301
STARLINK-5269           
1 54161U 22141E   22326.91667824 -.01182277  00000+0 -20335-1 0  9998
2 54161  53.2175  16.4230 0001466  51.2311 134.7199 15.53542955  1300
STARLINK-5273           
1 54162U 22141F   22326.91667824 -.01183237  00000+0 -20295-1 0  9991
2 54162  53.2176  16.4160 0001604  43.2736 145.9693 15.53620062  1309
STARLINK-5161           
1 54163U 22141G   22326.91667824 -.00041010  00000+0 -28909-3 0  9995
2 54163  53.2184  15.8760 0003563   2.5915  99.3891 15.73198317  1308
STARLINK-5278           
1 54164U 22141H   22326.91667824 -.00041643  00000+0 -29363-3 0  9993
2 54164  53.2185  15.8768 0003295  10.1977  91.1983 15.73200616  1301
STARLINK-5279           
1 54165U 22141J   22326.91667824 -.01182291  00000+0 -20252-1 0  9996
2 54165  53.2176  16.4129 0001607  42.4379 148.3455 15.53653613  1305
STARLINK-5280           
1 54166U 22141K   22326.91667824 -.00049426  00000+0 -34975-3 0  9997
2 54166  53.2180  15.8720 0002966   8.6205  93.9979 15.73197190  1303
STARLINK-5243           
1 54167U 22141L   22326.91667824 -.01161017  00000+0 -19837-1 0  9998
2 54167  53.2193  16.4174 0001335  88.8212 103.5165 15.53670657  1302
STARLINK-5245           
1 54168U 22141M   22326.91667824  .00034716  00000+0  25113-3 0  9997
2 54168  53.2182  15.8709 0003241  11.1846  92.6130 15.73160373  1309
STARLINK-5282           
1 54169U 22141N   22326.91667824  .00039657  00000+0  28626-3 0  9999
2 54169  53.2181  15.8767 0003279   5.2925  95.5222 15.73145440  1308
STARLINK-5155           
1 54170U 22141P   22326.91667824  .00062145  00000+0  44504-3 0  9992
2 54170  53.2177  15.8718 0003326   5.8812  98.4546 15.73136925  1304
STARLINK-5229           
1 54171U 22141Q   22326.91667824 -.00039277  00000+0 -27663-3 0  9992
2 54171  53.2187  15.8785 0003137   9.5618  90.6427 15.73200590  1307
STARLINK-5117           
1 54172U 22141R   22326.91667824 -.00047997  00000+0 -33930-3 0  9995
2 54172  53.2178  15.8650 0003555   4.0711 101.4974 15.73203746  1301
STARLINK-5242           
1 54173U 22141S   22326.91667824 -.00039638  00000+0 -27911-3 0  9991
2 54173  53.2180  15.8713 0003184   7.0988  96.0647 15.73210188  1306
STARLINK-5248           
1 54174U 22141T   22326.91667824  .00013686  00000+0  10188-3 0  9993
2 54174  53.2167  15.0744 0002297  22.2123 107.6920 15.73175152  1306
STARLINK-5256           
1 54175U 22141U   22326.91667824 -.00050685  00000+0 -35884-3 0  9996
2 54175  53.2184  15.8679 0003460   6.9311  98.0647 15.73193238  1306
STARLINK-5154           
1 54176U 22141V   22326.91667824  .00040044  00000+0  28887-3 0  9998
2 54176  53.2176  15.8595 0003507   4.7158 103.2508 15.73154887  1304
STARLINK-5186           
1 54177U 22141W   22326.91667824 -.00041235  00000+0 -29091-3 0  9992
2 54177  53.2190  15.8670 0003288  11.3360  94.8505 15.73183772  1307
STARLINK-5164           
1 54178U 22141X   22326.91667824  .00044516  00000+0  32047-3 0  9991
2 54178  53.2176  15.8581 0003382   3.6855 104.8672 15.73154580  1303
STARLINK-5122           
1 54179U 22141Y   22326.91667824  .00037799  00000+0  27294-3 0  9995
2 54179  53.2182  15.8641 0003032  10.1090  96.6264 15.73161043  1301
STARLINK-5228           
1 54180U 22141Z   22326.91667824  .00039478  00000+0  28482-3 0  9993
2 54180  53.2177  15.8519 0003126   4.7556 106.7638 15.73160161  1309
STARLINK-5227           
1 54181U 22141AA  22326.91667824  .00017825  00000+0  13129-3 0  9998
2 54181  53.2180  15.8580 0003453   6.3740 102.7742 15.73172084  1307
STARLINK-5231           
1 54182U 22141AB  22326.91667824  .00011292  00000+0  84855-4 0  9996
2 54182  53.2168  15.8453 0003352  10.3422 103.5556 15.73174736  1301
STARLINK-5239           
1 54183U 22141AC  22326.91667824 -.00045108  00000+0 -31862-3 0  9991
2 54183  53.2187  15.8563 0003236   3.6377 107.2897 15.73197120  1301
STARLINK-5162           
1 54184U 22141AD  22326.91667824 -.00042826  00000+0 -30233-3 0  9997
2 54184  53.2165  15.8478 0003253   5.8896 106.2585 15.73186211  1304
STARLINK-5235           
1 54185U 22141AE  22326.91667824 -.00045836  00000+0 -32392-3 0  9990
2 54185  53.2180  15.8593 0003391   2.9983 107.3437 15.73191851  1302
STARLINK-5194           
1 54186U 22141AF  22326.91667824 -.00045957  00000+0 -32422-3 0  9999
2 54186  53.2171  15.8432 0003225   7.6079 107.3832 15.73233832  4330
STARLINK-5240           
1 54187U 22141AG  22326.91667824  .00044771  00000+0  32232-3 0  9990
2 54187  53.2184  15.8577 0003016   8.8241 100.9153 15.73152730  1303
STARLINK-5238           
1 54188U 22141AH  22326.91667824 -.00019062  00000+0 -13173-3 0  9991
2 54188  53.2155  15.8402 0003296   8.5121 106.0110 15.73184147  1300
STARLINK-5182           
1 54189U 22141AJ  22326.91667824  .00062984  00000+0  45075-3 0  9997
2 54189  53.2181  15.8494 0003616   7.0832 105.6659 15.73145841  1301
STARLINK-5281           
1 54190U 22141AK  22326.91667824 -.00044191  00000+0 -31204-3 0  9990
2 54190  53.2173  15.8426 0003045   7.6070 108.0880 15.73196675  1309
STARLINK-4619           
1 54191U 22141AL  22326.91667824  .00029328  00000+0  21291-3 0  9999
2 54191  53.2175  15.8475 0003476   7.3633 105.9548 15.73167109  1303
STARLINK-5268           
1 54192U 22141AM  22326.91667824 -.00053553  00000+0 -37919-3 0  9993
2 54192  53.2182  15.8333 0003412   5.7767 115.2785 15.73214073  1305
STARLINK-5263           
1 54193U 22141AN  22326.91667824  .00040084  00000+0  28908-3 0  9995
2 54193  53.2175  15.8408 0003402   8.1907 108.6990 15.73160879  1301
STARLINK-5271           
1 54194U 22141AP  22326.91667824  .00048962  00000+0  35190-3 0  9990
2 54194  53.2182  15.8390 0003282   5.7621 112.3304 15.73151708  4330
STARLINK-5258           
1 54195U 22141AQ  22326.91667824 -.00050122  00000+0 -35481-3 0  9997
2 54195  53.2183  15.8433 0002964   7.6497 108.6764 15.73194056  1303
STARLINK-5237           
1 54196U 22141AR  22326.91667824 -.00007460  00000+0 -48764-4 0  9994
2 54196  53.2179  15.8361 0003040  12.5875 106.6912 15.73193269  1308
STARLINK-5234           
1 54197U 22141AS  22326.91667824  .00059775  00000+0  42773-3 0  9992
2 54197  53.2188  15.8417 0003098   5.9556 111.5827 15.73172277  1302
STARLINK-5246           
1 54198U 22141AT  22326.91667824 -.00050341  00000+0 -35625-3 0  9993
2 54198  53.2180  15.8346 0002898   9.7604 110.1329 15.73203509  1304
STARLINK-5244           
1 54199U 22141AU  22326.91667824  .00041484  00000+0  29910-3 0  9990
2 54199  53.2184  15.8382 0003367   8.1659 110.5357 15.73150962  1303
STARLINK-5250           
1 54200U 22141AV  22326.91667824 -.00040031  00000+0 -28219-3 0  9993
2 54200  53.2153  15.8244 0003011   6.9302 114.7375 15.73189688  1309
STARLINK-5199           
1 54201U 22141AW  22326.91667824 -.00036290  00000+0 -25523-3 0  9991
2 54201  53.2175  15.8294 0003229   6.0005 116.2652 15.73193695  1309
STARLINK-5205           
1 54202U 22141AX  22326.91667824  .00049902  00000+0  35853-3 0  9991
2 54202  53.2169  15.8261 0002882  11.3130 111.5587 15.73153143  1308
STARLINK-5247           
1 54203U 22141AY  22326.91667824 -.00045542  00000+0 -32188-3 0  9998
2 54203  53.2171  15.8313 0003005   7.5214 112.9846 15.73188384  1306
STARLINK-5241           
1 54204U 22141AZ  22326.91667824 -.00053991  00000+0 -38225-3 0  9994
2 54204  53.2175  15.8232 0003086   8.5759 116.0378 15.73221961  1309
STARLINK-5249           
1 54205U 22141BA  22326.91667824  .00026942  00000+0  19598-3 0  9991
2 54205  53.2173  15.8258 0002987   9.9960 113.4461 15.73171929  1306
STARLINK-5264           
1 54206U 22141BB  22326.91667824 -.00047073  00000+0 -33296-3 0  9993
2 54206  53.2159  15.3927 0002381  19.0880 314.0525 15.73188629  1305
STARLINK-5262           
1 54207U 22141BC  22326.91667824 -.00050062  00000+0 -35418-3 0  9994
2 54207  53.2176  15.8256 0003119  12.5412 111.4893 15.73206262  1305
STARLINK-5255           
1 54208U 22141BD  22326.91667824  .00040478  00000+0  29198-3 0  9991
2 54208  53.2171  15.8213 0003229   9.6018 115.6490 15.73152072  1303
STARLINK-5259           
1 54209U 22141BE  22326.91667824 -.00039160  00000+0 -27577-3 0  9999
2 54209  53.2169  15.8196 0003460   8.0341 117.8260 15.73200210  1307
SHIYAN 20C (SY-20C)     
1 54214U 22142A   22326.86694222 -.00000136  00000+0  00000+0 0  9990
2 54214  59.9978 281.2834 0010126 299.1494  60.8566 14.27345441  3550
CZ-2D R/B               
1 54215U 22142B   22326.22256894 -.00000138  00000+0  00000+0 0  9992
2 54215  59.9059 282.4460 0024734 221.2553 138.6619 14.33513027  3479
CSS (MENGTIAN)          
1 54216U 22143A   22325.50000426  .00017008  00000+0  21774-3 0  9990
2 54216  41.4782 340.7631 0005753 287.2893 199.4266 15.58787929 89363
2022-145A               
1 54223U 22145A   22326.69936846 -.00000350  00000+0  00000+0 0  9993
2 54223  63.8249  91.1745 6991992 269.8801  27.9000  2.01039559   413
2022-145B               
1 54224U 22145B   22326.24421942  .00000694  00000+0  00000+0 0  9991
2 54224  63.8537  91.0637 6980253 270.0278  95.5388  2.02013460   406
